[{"OBJECT_NAME":"STARLINK-4470","OBJECT_ID":"2022-105H","EPOCH":"2026-03-09T16:19:57.988128","MEAN_MOTION":15.05645183,"ECCENTRICITY":0.00026506,"INCLINATION":97.6009,"RA_OF_ASC_NODE":311.1586,"ARG_OF_PERICENTER":84.6866,"MEAN_ANOMALY":275.4663,"EPHEMERIS_TYPE":0,"CLASSIFICATION_TYPE":"U","NORAD_CAT_ID":53655,"ELEMENT_SET_NO":999,"REV_AT_EPOCH":19329,"BSTAR":-2.7041053e-5,"MEAN_MOTION_DOT":-4.51e-6,"MEAN_MOTION_DDOT":0},{"OBJECT_NAME":"PEGASUS DEB","OBJECT_ID":"1994-029AFE","EPOCH":"2026-03-09T22:01:13.596672","MEAN_MOTION":14.67197331,"ECCENTRICITY":0.01795257,"INCLINATION":81.944,"RA_OF_ASC_NODE":137.8868,"ARG_OF_PERICENTER":239.0776,"MEAN_ANOMALY":119.2676,"EPHEMERIS_TYPE":0,"CLASSIFICATION_TYPE":"U","NORAD_CAT_ID":39319,"ELEMENT_SET_NO":999,"REV_AT_EPOCH":26377,"BSTAR":0.00029247934,"MEAN_MOTION_DOT":2.119e-5,"MEAN_MOTION_DDOT":0}]
